[Satellite]
VERSION=1.1
NAME=INTELSAT 9 (IS-9)
NICKNAME=INTELSAT 9 (IS-9)
TLE1=1 26451U 00043A   17186.15382668 -.00000227  00000-0  00000-0 0  9999
TLE2=2 26451   3.5678  71.2569 0003357  18.5571 216.6582  1.00356434 62064
